ONEWEB-0102             
1 47258U 20100A   24339.63023281  .00000249  00000+0  65648-3 0  9991
2 47258  87.8877 102.1099 0001418 105.7053 254.4232 13.12444743191332
ONEWEB-0109             
1 47259U 20100B   24339.71456012  .00000336  00000+0  89922-3 0  9991
2 47259  87.8877 102.0595 0001390 105.1688 254.9594 13.12445464191179
ONEWEB-0110             
1 47260U 20100C   24339.58805492  .00000074  00000+0  17007-3 0  9992
2 47260  87.8872 102.0804 0001400  99.2485 260.8802 13.12441731191327
ONEWEB-0111             
1 47261U 20100D   24339.61886308 -.00000140  00000+0 -42465-3 0  9994
2 47261  87.8880 102.0789 0001472 102.8081 257.3212 13.12443425191161
ONEWEB-0114             
1 47262U 20100E   24339.57345258  .00000440  00000+0  11883-2 0  9994
2 47262  87.8874 102.0963 0001378 114.3594 245.7679 13.12442892191111
ONEWEB-0117             
1 47263U 20100F   24339.79405046  .00000361  00000+0  96886-3 0  9990
2 47263  87.8878 102.0359 0001443 102.4713 257.6577 13.12447594191156
ONEWEB-0118             
1 47264U 20100G   24339.82646972 -.00000438  00000+0 -12525-2 0  9994
2 47264  87.8878 102.0312 0001694 114.9396 245.1909 13.12442058191352
ONEWEB-0119             
1 47265U 20100H   24339.62536854  .00000025  00000+0  33910-4 0  9993
2 47265  87.8878 102.1102 0001461 100.6823 259.4471 13.12444570191308
